ONEWEB-0207             
1 48242U 21031AJ  25357.19388322 -.00000008  00000+0 -54739-4 0  9996
2 48242  87.9014 324.7548 0001659  89.6209 270.5111 13.14503584225177
ONEWEB-0208             
1 48243U 21031AK  25357.40399609 -.00000082  00000+0 -25550-3 0  9991
2 48243  87.9001 324.7265 0001562  76.3393 283.7911 13.14501774225218
ONEWEB-0200             
1 48244U 21031AL  25356.68246936  .00000229  00000+0  58292-3 0  9995
2 48244  87.9003 324.8597 0001661  82.6992 277.4327 13.14502101225042
ONEWEB-0217             
1 48245U 21031AM  25357.61172078  .00000245  00000+0  62667-3 0  9994
2 48245  87.9011 324.6703 0001535  75.4361 284.6939 13.14500403225119
ONEWEB-0211             
1 48767U 21045A   25357.80928458  .00000100  00000+0  23027-3 0  9997
2 48767  87.9008 294.1133 0001624  61.1357 298.9936 13.16138436221372
ONEWEB-0223             
1 48768U 21045B   25357.80507132  .00000107  00000+0  24990-3 0  9997
2 48768  87.9009 294.1806 0001915  62.4343 297.6982 13.15548916221344
ONEWEB-0230             
1 48769U 21045C   25357.54836376 -.00000299  00000+0 -82772-3 0  9990
2 48769  87.9001 294.2608 0001800  78.4805 281.6527 13.15548758221578
ONEWEB-0237             
1 48770U 21045D   25357.53727706 -.00000217  00000+0 -61000-3 0  9998
2 48770  87.9007 294.2632 0001956  68.9976 291.1364 13.15548142221299
